#dP2024  4 10 18  0  0.00000000      96 __u+U IGS20 EXT  IAC
## 2309 324000.00000000   900.00000000 60410 0.7500000000000
+  119   C06C07C08C09C10C11C12C13C14C16C19C20C21C22C23C24C25
+        C26C27C28C29C30C32C33C34C35C36C37C38C39C40C41C42C43
+        C44C45C46E02E03E04E05E07E08E09E10E11E12E13E14E15E19
+        E21E24E25E26E27E30E31E33E34E36G01G02G03G04G05G06G07
+        G08G09G10G11G12G13G14G15G16G17G18G19G20G21G22G23G24
+        G25G26G27G28G29G30G31G32J02J03J04R01R02R03R04R05R07
+        R08R09R11R12R13R14R15R16R17R18R19R20R21R22R24R25R26
++        11  9 10 11  8  9  8 10  8 11  8 10  9  8  9  8  7
++         9  9  8  8  9 10 10  7  7 10  7  9 11  8  8  8  8
++         9  8  7  7 10  8  7  8  8  7  8  8  8  7 10  7  7
++         7  7  7  8  8  7  7  8  7  8  8  8  7  7  7  7  7
++         7  7  8  7  7  7  7  8  6  7  8  8  8  8  7  7  6
++         6  7  8  8  7  6  7  8 10 10  9  9  8  8  8  8  8
++         8  8  6  8 10  9 10  9  8  9  9 10  9  7  8 10  8
%c M  cc GPS ccc cccc cccc cccc cccc ccccc ccccc ccccc ccccc
%c cc cc ccc ccc cccc cccc cccc cccc ccccc ccccc ccccc ccccc
%f  0.0000000  0.000000000  0.00000000000  0.000000000000000
%f  0.0000000  0.000000000  0.00000000000  0.000000000000000
%i    0    0    0    0      0      0      0      0         0
%i    0    0    0    0      0      0      0      0         0
/* IAC                                ULTRA-RAPID PREDICTION
/* S/V CLOCKS ARE ALIGNED TO GNSS TIME                      
/* G:C1WC2W R:C1PC2P E:C1XC5X C:C2IC6I J:C1CC2S             
/* PCV:IGS20_2290 OL/AL:FES2004  NONE     YN ORB:CoN CLK:CoN
*  2024 04 10 22  0  0.00000000
PC06  -9641.302425  23910.674221  33390.114755    336.786192
PC07 -14254.130515  39757.764794  -1983.702083   -832.411429
PC08    584.933158  30782.509396 -28713.608738    -13.828345
PC09  -2840.314374  24512.073585  34640.026158   -744.542775
PC10  -8033.717607  40687.427512  -8790.723589      6.621674
PC11 -14009.042609 -10649.791719  21722.766515    505.596375
PC12   6929.811647 -17110.369980  20961.847837   -229.368017
PC13   6663.820577  34644.564805 -22716.428088    430.357846
PC14  -8657.563067 -19832.967993 -17565.330697    613.786349
PC16 -15948.448872  22311.767520  32224.461534   -450.540146
PC19  13265.781875  10745.405162  22110.365273   -914.959707
PC20   3654.934432  25068.248789  11763.595288   -347.197102
PC21   9162.570859 -25454.240207   6793.092389   -962.638017
PC22  15850.096208 -10600.563821  20364.862232    -43.265323
PC23 -21178.281823   -601.818826  18165.225891   -775.602631
PC24 -11033.091437 -21850.144189 -13437.180033    942.139160
PC25 -23184.287581 -15122.326789   3610.464144    371.637229
PC26   6425.743102 -15448.334638 -22356.310632   -275.442876
PC27 -15681.644614  17115.426480 -15502.535143    297.213566
PC28 -26040.062221   9985.884948   -956.668459    227.176552
PC29  21682.693985   4236.649823 -17059.337737    266.481324
PC30   3515.161468  15827.447525 -22722.530828    -53.649649
PC32  -8975.290243  25537.083453  -6816.427146   -599.507673
PC33 -13322.112359 -10710.371113 -22044.699161   -969.797996
PC34  -5237.217457 -15238.018367  22768.331542    409.469052
PC35  25738.280203 -10816.297528    705.540086    390.024733
PC36  22751.343583  15790.847609  -3380.818087     47.350217
PC37  -7101.868596  15064.254190  22396.877014   -956.367741
PC38  -6248.002219  26975.437011 -31712.264808    148.218560
PC39 -21109.921362  21759.144385  29284.123519     -7.938064
PC40 -21006.789021  36739.370302   -135.672013    -64.892032
PC41 -15907.517806   9814.929565 -20670.430496   -922.527304
PC42  -2606.425427 -25791.261220 -10235.790541   -443.530345
PC43 -21064.170073  -5023.106473  17574.609059     67.502240
PC44  15188.400553 -17763.840079  15254.895433    439.945630
PC45  21096.694994    717.398318 -18246.849658    -79.672576
PC46  11699.117019  21817.171280  12836.509600   -138.952892
PE02  -8843.399951 -28235.515880   1085.008120    118.432565
PE03  -1861.945794 -20041.741582 -21694.079829   -106.338394
PE04  18323.858808   4004.888319  22911.551176   -370.575482
PE05  15390.219601 -24047.123061  -7792.700795   4737.373157
PE07 -23777.824457  13736.036493 -11055.675837   -113.854501
PE08 -17746.276908  -4635.441371 -23228.451131   -252.995130
PE09  23729.563294 -13665.606239  11226.434687   -402.577078
PE10  28981.013062   4139.863889   4383.645349   -616.160304
PE11  25875.127590  -2993.523663  14069.985691   3057.902897
PE12  27446.713648   9996.474923  -4878.500980   -988.464269
PE13 -26161.221030   2573.539231 -13590.330431    -20.955034
PE14 -13576.324891  27147.042515 -11501.454677      2.967769
PE15 -27223.299388 -10251.025323   5437.398871    -96.354541
PE19   -309.797521  21064.535413  20808.362899   -267.007862
PE21  -4352.930083  24556.811773  15937.034214   -588.587605
PE24  15815.761229  -6004.813018 -24310.743339   -700.459012
PE25   4642.765784 -24310.067361 -16241.473537      3.187523
PE26  -9211.867393  14067.451840 -24356.290215    422.149228
PE27 -15626.202826   6374.558220  24313.273330   -321.174454
PE30 -17499.197774 -15552.514962  18103.503443   -185.711144
PE31  17546.404734  15331.430233 -18253.305397    -20.506370
PE33  11763.480083  16913.791438 -21253.628864     10.243443
PE34 -12348.148618 -16844.694031  20968.991251   -104.956717
PE36   9860.734281 -13661.759449  24340.230893   -211.595375
PG01  22895.692720  11166.369879  -8467.630808    179.153559
PG02  15496.294384  13472.990580 -16513.812722   -455.536402
PG03  12367.773392  22296.798879   7518.933022    303.510521
PG04   8088.677660  13183.441687  21597.505317    335.829158
PG05  -5057.708218 -25262.096849   6077.021337   -168.670865
PG06  19506.775311  -6836.278692  16807.276339    327.869848
PG07  26146.209383   5969.528387    439.348179   -104.449958
PG08    276.197156  19445.870125 -17999.696819    114.024872
PG09  17813.673952    483.107510  19633.068700    155.844489
PG10 -12924.162395   7242.501962 -21813.146078     -7.459933
PG11   7242.515427 -13561.812686  21677.194460   -632.833223
PG12 -10296.469152 -23645.290331   6188.586188   -495.411306
PG13   9841.805979 -20466.125326 -13784.424657    641.668262
PG14  15252.698310  -3071.382759 -21505.288359    373.095895
PG15  -2904.315781 -19692.246541 -17983.728539    147.064718
PG16  -1224.458526  24392.341833   9528.936167   -319.879787
PG17  21625.322157 -11002.012202 -10566.233724    711.256982
PG18 -26114.660099  -5223.094538  -1302.458808   -592.197679
PG19  20666.037644 -16191.456172  -2488.261277    466.412987
PG20   2143.826444 -20871.154783  16439.015306    380.650582
PG21  10789.651041  14767.711748 -19144.595728    127.744170
PG22  11705.189610 -12107.367553 -20188.202121      2.427200
PG23 -16437.038720  -6190.919596 -19960.116569    197.899306
PG24 -13222.353666 -15006.793337 -18083.859116   -457.830931
PG25 -15872.592240 -16168.442540  13727.426152    493.467401
PG26  -8173.504661  16668.052309  18711.967055    168.365240
PG27 -10572.874466  22154.511321  -9856.647640    -17.841050
PG28 -21287.373103   6428.084499  14506.413679   -198.290059
PG29 -16251.590091  -3969.677287  20600.599085   -602.280114
PG30  24495.345816  -2360.763092 -10193.882955   -407.100861
PG31 -12855.824168  11541.323332  20065.758784   -228.028129
PG32 -20569.664469  14086.212729  -8651.325845   -617.928100
PJ02 -27012.746700  25467.975224  25009.608770     -3.910577
PJ03 -32797.866013  16494.134088 -16092.071350     -0.077454
PJ04 -21355.119708  33067.535844 -10112.026554     50.485604
PR01 -12094.772716   2646.746006 -22297.134752     82.122736
PR02 -12960.898459  18395.740737 -11900.607572    -22.702281
PR03  -6242.223097  24125.501847   5366.282308     98.000987
PR04   3291.628918  16430.215524  19263.842208    231.463415
PR05  11336.244948     26.034751  22869.877951    129.768911
PR07   5901.089724 -24074.117313  -6076.909419     79.942261
PR08  -3580.442165 -16293.457159 -19241.838398    -75.047193
PR09   9539.140389  -6262.338048 -22799.498542    180.297038
PR11 -15070.364030 -20264.493437  -3518.565296     28.366502
PR12 -17937.598753 -10102.412817  15092.278088     38.842083
PR13 -11073.594725   3803.652291  22646.258524    -46.184253
PR14   4339.542766  18119.869384  17441.423797     26.356124
PR15  15607.596503  20085.404170   1980.842287     80.603569
PR16  17969.719454  10322.492384 -14891.056179     24.702386
PR17  -5842.477579  11220.577951 -22151.783041     76.862861
PR18  11976.693511   7828.386663 -21120.761740    136.523794
PR19  22999.679788   2086.473662 -10838.723335   -272.611711
PR20  22290.828643  -7211.205002  10150.481616   -111.066016
PR21   5879.525909 -11088.082304  22198.998306    -91.728878
PR22 -12825.001092  -8169.964293  20498.331011    115.596022
PR24 -21595.360519   8546.538520 -10546.462944    -51.329451
PR25   5968.419760 -11267.897088  22092.374146    -28.364571
PR26  -3075.803197 -17096.878978 -18641.574575    -25.605566
EOF
